GLOBALSTAR M067 [+]     
1 32263U 07048A   24052.58459421 -.00000097  00000+0  66745-5 0  9995
2 32263  51.9757   5.1014 0001241  42.9284 128.3694 12.40638015749700
GLOBALSTAR M070 [+]     
1 32264U 07048B   24052.54168425 -.00000105  00000+0 -83984-5 0  9998
2 32264  51.9742 155.7518 0001119 117.3102 255.8453 12.62286791752848
GLOBALSTAR M066 [+]     
1 32265U 07048C   24052.18371214 -.00000079  00000+0  14037-3 0  9991
2 32265  51.9697  18.8492 0000561 327.3872  46.2753 12.62260349755068
GLOBALSTAR M068 [-]     
1 32266U 07048D   24052.54560061 -.00000062  00000+0  23165-3 0  9996
2 32266  51.9910 330.4087 0001037 119.2673  52.6228 12.62780274756991
GLOBALSTAR M079 [+]     
1 37188U 10054A   24052.56940288 -.00000112  00000+0 -45439-4 0  9996
2 37188  52.0030 165.9078 0000624  98.3951 275.5096 12.62266720615631
GLOBALSTAR M074 [+]     
1 37189U 10054B   24052.59739117 -.00000109  00000+0 -31494-4 0  9999
2 37189  52.0006 165.2202 0000875 110.5648 270.1831 12.62265459616249
GLOBALSTAR M076 [+]     
1 37190U 10054C   24052.62232641 -.00000117  00000+0 -72417-4 0  9994
2 37190  52.0019 165.2734 0001010  78.4938 294.5231 12.62274818615962
GLOBALSTAR M077 [+]     
1 37191U 10054D   24052.45074307 -.00000089  00000+0  83552-4 0  9998
2 37191  52.0067 122.5136 0000739 116.0401 257.0229 12.62269840616319
